[{"OBJECT_NAME":"STARLINK-3965","OBJECT_ID":"2022-051T","EPOCH":"2026-03-09T09:37:24.126816","MEAN_MOTION":15.08843557,"ECCENTRICITY":0.00013582,"INCLINATION":53.2166,"RA_OF_ASC_NODE":130.4161,"ARG_OF_PERICENTER":87.1674,"MEAN_ANOMALY":272.9474,"EPHEMERIS_TYPE":0,"CLASSIFICATION_TYPE":"U","NORAD_CAT_ID":52550,"ELEMENT_SET_NO":999,"REV_AT_EPOCH":21140,"BSTAR":0.00026322696,"MEAN_MOTION_DOT":3.904e-5,"MEAN_MOTION_DDOT":0},{"OBJECT_NAME":"NOAA 17 DEB","OBJECT_ID":"2002-032W","EPOCH":"2026-03-09T23:34:50.358720","MEAN_MOTION":15.06684432,"ECCENTRICITY":0.0012716,"INCLINATION":98.7039,"RA_OF_ASC_NODE":76.0065,"ARG_OF_PERICENTER":104.6864,"MEAN_ANOMALY":255.577,"EPHEMERIS_TYPE":0,"CLASSIFICATION_TYPE":"U","NORAD_CAT_ID":48181,"ELEMENT_SET_NO":999,"REV_AT_EPOCH":26088,"BSTAR":0.0078736038,"MEAN_MOTION_DOT":0.00118919,"MEAN_MOTION_DDOT":0}]
